[{"OBJECT_NAME":"STARLINK-36296","OBJECT_ID":"2026-063A","EPOCH":"2026-04-05T04:00:01.999584","MEAN_MOTION":15.97730486,"ECCENTRICITY":0.00013912,"INCLINATION":97.2832,"RA_OF_ASC_NODE":236.1565,"ARG_OF_PERICENTER":24.681,"MEAN_ANOMALY":320.5511,"EPHEMERIS_TYPE":0,"CLASSIFICATION_TYPE":"U","NORAD_CAT_ID":68380,"ELEMENT_SET_NO":999,"REV_AT_EPOCH":271,"BSTAR":0.0011841998,"MEAN_MOTION_DOT":0.00527324,"MEAN_MOTION_DDOT":0.00011972824},{"OBJECT_NAME":"STARLINK-37111","OBJECT_ID":"2026-063B","EPOCH":"2026-04-05T04:00:01.999584","MEAN_MOTION":15.89094209,"ECCENTRICITY":0.00015746,"INCLINATION":97.2835,"RA_OF_ASC_NODE":236.1457,"ARG_OF_PERICENTER":66.9701,"MEAN_ANOMALY":253.172,"EPHEMERIS_TYPE":0,"CLASSIFICATION_TYPE":"U","NORAD_CAT_ID":68381,"ELEMENT_SET_NO":999,"REV_AT_EPOCH":271,"BSTAR":-0.0075447501,"MEAN_MOTION_DOT":-0.01845867,"MEAN_MOTION_DDOT":0},{"OBJECT_NAME":"STARLINK-36946","OBJECT_ID":"2026-063C","EPOCH":"2026-04-05T04:00:01.999584","MEAN_MOTION":15.8920992,"ECCENTRICITY":0.00015187,"INCLINATION":97.2827,"RA_OF_ASC_NODE":236.1466,"ARG_OF_PERICENTER":73.22,"MEAN_ANOMALY":250.448,"EPHEMERIS_TYPE":0,"CLASSIFICATION_TYPE":"U","NORAD_CAT_ID":68382,"ELEMENT_SET_NO":999,"REV_AT_EPOCH":271,"BSTAR":-0.007525985,"MEAN_MOTION_DOT":-0.01851112,"MEAN_MOTION_DDOT":0},{"OBJECT_NAME":"STARLINK-37121","OBJECT_ID":"2026-063D","EPOCH":"2026-04-05T04:00:01.999584","MEAN_MOTION":15.89450795,"ECCENTRICITY":0.00014727,"INCLINATION":97.2828,"RA_OF_ASC_NODE":236.1502,"ARG_OF_PERICENTER":65.7637,"MEAN_ANOMALY":264.7749,"EPHEMERIS_TYPE":0,"CLASSIFICATION_TYPE":"U","NORAD_CAT_ID":68383,"ELEMENT_SET_NO":999,"REV_AT_EPOCH":271,"BSTAR":-0.007463041,"MEAN_MOTION_DOT":-0.02136928,"MEAN_MOTION_DDOT":0.0012034787},{"OBJECT_NAME":"STARLINK-37137","OBJECT_ID":"2026-063E","EPOCH":"2026-04-05T04:00:01.999584","MEAN_MOTION":15.89351779,"ECCENTRICITY":0.00015316,"INCLINATION":97.283,"RA_OF_ASC_NODE":236.1484,"ARG_OF_PERICENTER":69.6105,"MEAN_ANOMALY":257.2906,"EPHEMERIS_TYPE":0,"CLASSIFICATION_TYPE":"U","NORAD_CAT_ID":68384,"ELEMENT_SET_NO":999,"REV_AT_EPOCH":271,"BSTAR":-0.0075026778,"MEAN_MOTION_DOT":-0.02137706,"MEAN_MOTION_DDOT":0.0012031039},{"OBJECT_NAME":"STARLINK-37128","OBJECT_ID":"2026-063F","EPOCH":"2026-04-05T04:00:01.999584","MEAN_MOTION":15.89550795,"ECCENTRICITY":0.00014484,"INCLINATION":97.2828,"RA_OF_ASC_NODE":236.1518,"ARG_OF_PERICENTER":65.327,"MEAN_ANOMALY":268.8716,"EPHEMERIS_TYPE":0,"CLASSIFICATION_TYPE":"U","NORAD_CAT_ID":68385,"ELEMENT_SET_NO":999,"REV_AT_EPOCH":266,"BSTAR":-0.0074615052,"MEAN_MOTION_DOT":-0.02147056,"MEAN_MOTION_DDOT":0.0012155172},{"OBJECT_NAME":"STARLINK-37198","OBJECT_ID":"2026-063G","EPOCH":"2026-04-05T04:00:01.999584","MEAN_MOTION":15.89694529,"ECCENTRICITY":0.00014348,"INCLINATION":97.2824,"RA_OF_ASC_NODE":236.1529,"ARG_OF_PERICENTER":69.0185,"MEAN_ANOMALY":268.3592,"EPHEMERIS_TYPE":0,"CLASSIFICATION_TYPE":"U","NORAD_CAT_ID":68386,"ELEMENT_SET_NO":999,"REV_AT_EPOCH":271,"BSTAR":-0.0074173358,"MEAN_MOTION_DOT":-0.02149698,"MEAN_MOTION_DDOT":0.0012201265},{"OBJECT_NAME":"STARLINK-37223","OBJECT_ID":"2026-063H","EPOCH":"2026-04-05T04:00:01.999584","MEAN_MOTION":15.89805816,"ECCENTRICITY":0.00015264,"INCLINATION":97.2822,"RA_OF_ASC_NODE":236.1544,"ARG_OF_PERICENTER":70.0608,"MEAN_ANOMALY":270.8113,"EPHEMERIS_TYPE":0,"CLASSIFICATION_TYPE":"U","NORAD_CAT_ID":68387,"ELEMENT_SET_NO":999,"REV_AT_EPOCH":271,"BSTAR":-0.0073776325,"MEAN_MOTION_DOT":-0.02150154,"MEAN_MOTION_DDOT":0.0012219983},{"OBJECT_NAME":"STARLINK-37203","OBJECT_ID":"2026-063J","EPOCH":"2026-04-05T04:00:01.999584","MEAN_MOTION":15.89915535,"ECCENTRICITY":0.00014254,"INCLINATION":97.282,"RA_OF_ASC_NODE":236.1559,"ARG_OF_PERICENTER":73.8896,"MEAN_ANOMALY":270.5643,"EPHEMERIS_TYPE":0,"CLASSIFICATION_TYPE":"U","NORAD_CAT_ID":68388,"ELEMENT_SET_NO":999,"REV_AT_EPOCH":271,"BSTAR":-0.0073938288,"MEAN_MOTION_DOT":-0.02166541,"MEAN_MOTION_DDOT":0.0012410833},{"OBJECT_NAME":"STARLINK-37197","OBJECT_ID":"2026-063K","EPOCH":"2026-04-05T04:00:01.999584","MEAN_MOTION":15.90160726,"ECCENTRICITY":0.00015105,"INCLINATION":97.282,"RA_OF_ASC_NODE":236.1594,"ARG_OF_PERICENTER":63.1842,"MEAN_ANOMALY":287.8541,"EPHEMERIS_TYPE":0,"CLASSIFICATION_TYPE":"U","NORAD_CAT_ID":68389,"ELEMENT_SET_NO":999,"REV_AT_EPOCH":271,"BSTAR":-0.0072457245,"MEAN_MOTION_DOT":-0.02149655,"MEAN_MOTION_DDOT":0.0012258948},{"OBJECT_NAME":"STARLINK-37193","OBJECT_ID":"2026-063L","EPOCH":"2026-04-05T02:10:55.786080","MEAN_MOTION":16.06884715,"ECCENTRICITY":0.00011961,"INCLINATION":97.2818,"RA_OF_ASC_NODE":236.114,"ARG_OF_PERICENTER":324.7874,"MEAN_ANOMALY":35.3329,"EPHEMERIS_TYPE":0,"CLASSIFICATION_TYPE":"U","NORAD_CAT_ID":68390,"ELEMENT_SET_NO":999,"REV_AT_EPOCH":179,"BSTAR":0.0012559922,"MEAN_MOTION_DOT":0.00948776,"MEAN_MOTION_DDOT":0.00049539881},{"OBJECT_NAME":"STARLINK-37216","OBJECT_ID":"2026-063M","EPOCH":"2026-04-05T04:00:01.999584","MEAN_MOTION":15.90291574,"ECCENTRICITY":0.00015127,"INCLINATION":97.2818,"RA_OF_ASC_NODE":236.1603,"ARG_OF_PERICENTER":64.2799,"MEAN_ANOMALY":290.0136,"EPHEMERIS_TYPE":0,"CLASSIFICATION_TYPE":"U","NORAD_CAT_ID":68391,"ELEMENT_SET_NO":999,"REV_AT_EPOCH":271,"BSTAR":-0.0072209283,"MEAN_MOTION_DOT":-0.02156374,"MEAN_MOTION_DDOT":0.001234818},{"OBJECT_NAME":"STARLINK-37215","OBJECT_ID":"2026-063N","EPOCH":"2026-04-05T04:00:01.999584","MEAN_MOTION":15.90395782,"ECCENTRICITY":0.00014885,"INCLINATION":97.2815,"RA_OF_ASC_NODE":236.1621,"ARG_OF_PERICENTER":59.6861,"MEAN_ANOMALY":298.2251,"EPHEMERIS_TYPE":0,"CLASSIFICATION_TYPE":"U","NORAD_CAT_ID":68392,"ELEMENT_SET_NO":999,"REV_AT_EPOCH":271,"BSTAR":-0.0072308939,"MEAN_MOTION_DOT":-0.02170551,"MEAN_MOTION_DDOT":0.0012515975},{"OBJECT_NAME":"STARLINK-37184","OBJECT_ID":"2026-063P","EPOCH":"2026-04-05T04:00:01.999584","MEAN_MOTION":15.9049837,"ECCENTRICITY":0.00014547,"INCLINATION":97.2816,"RA_OF_ASC_NODE":236.1638,"ARG_OF_PERICENTER":63.5134,"MEAN_ANOMALY":298.0516,"EPHEMERIS_TYPE":0,"CLASSIFICATION_TYPE":"U","NORAD_CAT_ID":68393,"ELEMENT_SET_NO":999,"REV_AT_EPOCH":271,"BSTAR":-0.0072469698,"MEAN_MOTION_DOT":-0.02186477,"MEAN_MOTION_DDOT":0.0012704291},{"OBJECT_NAME":"STARLINK-37157","OBJECT_ID":"2026-063Q","EPOCH":"2026-04-05T04:00:01.999584","MEAN_MOTION":15.90623684,"ECCENTRICITY":0.00015364,"INCLINATION":97.2811,"RA_OF_ASC_NODE":236.1644,"ARG_OF_PERICENTER":56.8115,"MEAN_ANOMALY":307.9414,"EPHEMERIS_TYPE":0,"CLASSIFICATION_TYPE":"U","NORAD_CAT_ID":68394,"ELEMENT_SET_NO":999,"REV_AT_EPOCH":271,"BSTAR":-0.0071594564,"MEAN_MOTION_DOT":-0.02173949,"MEAN_MOTION_DDOT":0.0012582748},{"OBJECT_NAME":"STARLINK-37172","OBJECT_ID":"2026-063R","EPOCH":"2026-04-05T04:00:01.999584","MEAN_MOTION":15.90857698,"ECCENTRICITY":0.00015099,"INCLINATION":97.2806,"RA_OF_ASC_NODE":236.1672,"ARG_OF_PERICENTER":64.3668,"MEAN_ANOMALY":307.2525,"EPHEMERIS_TYPE":0,"CLASSIFICATION_TYPE":"U","NORAD_CAT_ID":68395,"ELEMENT_SET_NO":999,"REV_AT_EPOCH":271,"BSTAR":-0.0071361373,"MEAN_MOTION_DOT":-0.0219247,"MEAN_MOTION_DDOT":0.0012818238},{"OBJECT_NAME":"STARLINK-37190","OBJECT_ID":"2026-063S","EPOCH":"2026-04-05T04:00:01.999584","MEAN_MOTION":15.90755831,"ECCENTRICITY":0.00015675,"INCLINATION":97.2805,"RA_OF_ASC_NODE":236.1658,"ARG_OF_PERICENTER":58.5787,"MEAN_ANOMALY":309.4223,"EPHEMERIS_TYPE":0,"CLASSIFICATION_TYPE":"U","NORAD_CAT_ID":68396,"ELEMENT_SET_NO":999,"REV_AT_EPOCH":271,"BSTAR":-0.0071475272,"MEAN_MOTION_DOT":-0.02184771,"MEAN_MOTION_DDOT":0.0012719365},{"OBJECT_NAME":"STARLINK-37194","OBJECT_ID":"2026-063T","EPOCH":"2026-04-05T04:00:01.999584","MEAN_MOTION":15.90968818,"ECCENTRICITY":0.00015956,"INCLINATION":97.2806,"RA_OF_ASC_NODE":236.1689,"ARG_OF_PERICENTER":56.0688,"MEAN_ANOMALY":318.9899,"EPHEMERIS_TYPE":0,"CLASSIFICATION_TYPE":"U","NORAD_CAT_ID":68397,"ELEMENT_SET_NO":999,"REV_AT_EPOCH":271,"BSTAR":-0.007106157,"MEAN_MOTION_DOT":-0.02195589,"MEAN_MOTION_DDOT":0.0012867855},{"OBJECT_NAME":"STARLINK-37220","OBJECT_ID":"2026-063U","EPOCH":"2026-04-05T04:00:01.999584","MEAN_MOTION":15.91191075,"ECCENTRICITY":0.00016374,"INCLINATION":97.2806,"RA_OF_ASC_NODE":236.1719,"ARG_OF_PERICENTER":52.5774,"MEAN_ANOMALY":329.2924,"EPHEMERIS_TYPE":0,"CLASSIFICATION_TYPE":"U","NORAD_CAT_ID":68398,"ELEMENT_SET_NO":999,"REV_AT_EPOCH":271,"BSTAR":-0.0070225535,"MEAN_MOTION_DOT":-0.02194422,"MEAN_MOTION_DDOT":0.001288476},{"OBJECT_NAME":"STARLINK-37187","OBJECT_ID":"2026-063V","EPOCH":"2026-04-05T04:00:01.999584","MEAN_MOTION":15.90902876,"ECCENTRICITY":0.00024242,"INCLINATION":97.2803,"RA_OF_ASC_NODE":236.1708,"ARG_OF_PERICENTER":49.2682,"MEAN_ANOMALY":329.276,"EPHEMERIS_TYPE":0,"CLASSIFICATION_TYPE":"U","NORAD_CAT_ID":68399,"ELEMENT_SET_NO":999,"REV_AT_EPOCH":271,"BSTAR":-0.006394514,"MEAN_MOTION_DOT":-0.01971836,"MEAN_MOTION_DDOT":0.0010496678},{"OBJECT_NAME":"STARLINK-36235","OBJECT_ID":"2026-063W","EPOCH":"2026-04-05T04:00:01.999584","MEAN_MOTION":15.9128823,"ECCENTRICITY":0.00015198,"INCLINATION":97.2799,"RA_OF_ASC_NODE":236.1734,"ARG_OF_PERICENTER":61.6962,"MEAN_ANOMALY":323.8525,"EPHEMERIS_TYPE":0,"CLASSIFICATION_TYPE":"U","NORAD_CAT_ID":68400,"ELEMENT_SET_NO":999,"REV_AT_EPOCH":271,"BSTAR":-0.0070220293,"MEAN_MOTION_DOT":-0.02204982,"MEAN_MOTION_DDOT":0.0013016264},{"OBJECT_NAME":"STARLINK-37175","OBJECT_ID":"2026-063X","EPOCH":"2026-04-05T04:00:01.999584","MEAN_MOTION":15.91394658,"ECCENTRICITY":0.00016535,"INCLINATION":97.2801,"RA_OF_ASC_NODE":236.1752,"ARG_OF_PERICENTER":57.2555,"MEAN_ANOMALY":331.9122,"EPHEMERIS_TYPE":0,"CLASSIFICATION_TYPE":"U","NORAD_CAT_ID":68401,"ELEMENT_SET_NO":999,"REV_AT_EPOCH":271,"BSTAR":-0.0070387358,"MEAN_MOTION_DOT":-0.0222211,"MEAN_MOTION_DDOT":0.0013224423},{"OBJECT_NAME":"STARLINK-36360","OBJECT_ID":"2026-063Y","EPOCH":"2026-04-05T04:00:01.999584","MEAN_MOTION":15.91495001,"ECCENTRICITY":0.00016638,"INCLINATION":97.2798,"RA_OF_ASC_NODE":236.1766,"ARG_OF_PERICENTER":60.251,"MEAN_ANOMALY":332.4637,"EPHEMERIS_TYPE":0,"CLASSIFICATION_TYPE":"U","NORAD_CAT_ID":68402,"ELEMENT_SET_NO":999,"REV_AT_EPOCH":271,"BSTAR":-0.006988492,"MEAN_MOTION_DOT":-0.0221762,"MEAN_MOTION_DDOT":0.001318748}]
